satname,norad_id,inclination_deg,eccentricity,mean_motion_rev_per_day,perigee_km,apogee_km,l1,l2
STARLINK-1582,46043,53.1613,0.0001358,15.3021769,474.2315727385567,476.09292881506826,1 46043U 20055S   26085.87702887  .00008762  00000+0  30745-3 0  9991,2 46043  53.1613  46.8609 0001358  95.8227 264.2929 15.30217690311510
STARLINK-1591,46045,53.1613,0.0001564,15.30224824,474.06909776044085,476.2128031033362,1 46045U 20055U   26085.90336524  .00010068  00000+0  35134-3 0  9997,2 46045  53.1613  46.7488 0001564  95.4008 264.7171 15.30224824311508
STARLINK-1524,46047,53.1621,0.0001389,15.30190828,474.29052108848555,476.19438990122217,1 46047U 20055W   26085.24440244  .00002032  00000+0  80743-4 0  9990,2 46047  53.1621  36.9455 0001389  90.1389 269.9771 15.30190828311603
STARLINK-1527,46048,53.1619,0.0001439,15.30189761,474.25943963610644,476.23184316030165,1 46048U 20055X   26085.12010839  .00003469  00000+0  12924-3 0  9991,2 46048  53.1619  37.6197 0001439  87.9700 272.1466 15.30189761311565
STARLINK-1540,46051,53.1617,0.0001389,15.30186642,474.3030181472259,476.2068904321277,1 46051U 20055AA  26085.27388485  .00001420  00000+0  60102-4 0  9993,2 46051  53.1617  36.8100 0001389  84.2839 275.8320 15.30186642311620
STARLINK-1541,46052,53.1623,0.0001621,15.30209166,474.0767775980012,476.29862546623826,1 46052U 20055AB  26085.85118683  .00002878  00000+0  10924-3 0  9993,2 46052  53.1623  34.1708 0001621  85.4261 274.6925 15.30209166311674
STARLINK-1543,46053,53.162,0.000146,15.30210742,474.18241121180563,476.18358065061784,1 46053U 20055AC  26085.85751366  .00001046  00000+0  47428-4 0  9991,2 46053  53.1620  34.1675 0001460  81.6254 278.4912 15.30210742311700
STARLINK-1548,46054,53.1624,0.0001352,15.30191351,474.3143172047139,476.16747058722285,1 46054U 20055AD  26085.27706780  .00002618  00000+0  10052-3 0  9996,2 46054  53.1624  36.8647 0001352  76.6918 283.4233 15.30191351311610
STARLINK-1554,46055,53.1607,0.0001349,15.30196274,474.3016759113307,476.15071330123556,1 46055U 20055AE  26085.27498067  .00004166  00000+0  15271-3 0  9991,2 46055  53.1607  36.9998 0001349  87.0751 273.0404 15.30196274311613
STARLINK-1564,46058,53.1616,0.0001193,15.30187081,474.4360339922805,476.0712529998191,1 46058U 20055AH  26085.86074619  .00003530  00000+0  13130-3 0  9998,2 46058  53.1616  34.6108 0001193  82.6014 277.5122 15.30187081311694
STARLINK-1570,46059,53.1621,0.000188,15.30263363,473.73749082825816,476.31428007318846,1 46059U 20055AJ  26085.23702521  .00030515  00000+0  10361-2 0  9995,2 46059  53.1621  37.0512 0001880  94.8074 265.3142 15.30263363311562
STARLINK-1572,46060,53.1615,0.0001387,15.30207764,474.2413308960995,476.14244432952364,1 46060U 20055AK  26085.25392610  .00008050  00000+0  28357-3 0  9997,2 46060  53.1615  37.1773 0001387  91.1957 268.9202 15.30207764311579
STARLINK-1573,46061,53.1603,0.0001344,15.30199253,474.2962090096871,476.1383906454812,1 46061U 20055AL  26085.09059589  .00003993  00000+0  14689-3 0  9999,2 46061  53.1603  37.6805 0001344  84.9708 275.1446 15.30199253311589
STARLINK-1577,46063,53.1632,0.0001195,15.30196001,474.40803273933943,476.0459867376676,1 46063U 20055AN  26085.83537995  .00002676  00000+0  10245-3 0  9996,2 46063  53.1632  34.1919 0001195  90.8495 269.2642 15.30196001311696
STARLINK-1583,46064,53.1617,0.0001521,15.30200407,474.1714595260328,476.25624885587786,1 46064U 20055AP  26085.08743844  .00004672  00000+0  16975-3 0  9990,2 46064  53.1617  37.7031 0001521  98.4480 261.6693 15.30200407311570
STARLINK-1525,46066,53.056,0.0001584,15.30038006,474.6131493884059,476.7844445688879,1 46066U 20055AR  26085.88156175  .00076555  00000+0  25830-2 0  9993,2 46066  53.0560  17.2608 0001584 126.5632 233.5513 15.30038006311924
STARLINK-1536,46070,53.0562,0.0001439,15.06390373,546.244501560539,548.2376253672037,1 46070U 20055AV  26085.20414925  .00001558  00000+0  12351-3 0  9990,2 46070  53.0562  22.4825 0001439  86.6503 273.4651 15.06390373311806
STARLINK-1542,46073,53.0568,0.0001409,15.06393937,546.2543559923142,548.2059244524289,1 46073U 20055AY  26085.13042462  .00002000  00000+0  15316-3 0  9995,2 46073  53.0568  22.8137 0001409  85.3071 274.8079 15.06393937311783
STARLINK-1549,46074,53.0559,0.0001546,15.06401765,546.1354904220107,548.2768065235177,1 46074U 20055AZ  26085.77913269 -.00001603  00000+0 -88725-4 0  9993,2 46074  53.0559  19.9004 0001546  97.5839 262.5325 15.06401765311870
STARLINK-1551,46075,53.056,0.0001464,15.06392141,546.2217701909021,548.2495193012828,1 46075U 20055BA  26085.07514196  .00002298  00000+0  17314-3 0  9997,2 46075  53.0560  23.0615 0001464  91.2386 268.8771 15.06392141311774
STARLINK-1552,46076,53.0557,0.0001468,15.06396174,546.206641212345,548.2399269917578,1 46076U 20055BB  26085.23362732  .00002611  00000+0  19412-3 0  9993,2 46076  53.0557  22.3497 0001468  84.6815 275.4342 15.06396174311787
STARLINK-1559,46077,53.0286,0.0004277,15.31197535,469.3083213390246,475.16813230804837,1 46077U 20055BC  26085.73535120  .00049578  00000+0  16235-2 0  9994,2 46077  53.0286 354.4942 0004277  99.3563 260.7920 15.31197535312198
STARLINK-1566,46079,53.0556,0.0001236,15.06414314,546.311720277824,548.0236555966812,1 46079U 20055BE  26085.65013495  .00004015  00000+0  28814-3 0  9997,2 46079  53.0556  20.4803 0001236  91.4431 268.6700 15.06414314311860
STARLINK-1568,46080,53.0616,0.0005657,15.47828536,419.2321898101727,426.9270863144757,1 46080U 20055BF  26085.87003617  .00036036  00000+0  68721-3 0  9997,2 46080  53.0616 310.9026 0005657 171.4609 188.6495 15.47828536312852
STARLINK-1578,46082,53.0559,0.0001454,15.06392012,546.2290908759469,548.2429893560129,1 46082U 20055BH  26085.20046014  .00001688  00000+0  13221-3 0  9994,2 46082  53.0559  22.4993 0001454  93.9317 266.1839 15.06392012311799
STARLINK-1579,46083,53.0559,0.0001546,15.06404438,546.1272993566399,548.2686129250787,1 46083U 20055BJ  26085.83348551  .00001810  00000+0  14037-3 0  9998,2 46083  53.0559  19.6471 0001546  88.0732 272.0434 15.06404438311880
STARLINK-1585,46117,53.0359,0.0006988,15.95753298,281.5591748595316,290.8732749266428,1 46117U 20057A   26085.91668981  .00347407  59210-4  84343-3 0  9993,2 46117  53.0359 159.3919 0006988   7.0978 267.2587 15.95753298  6091
STARLINK-1593,46119,53.0405,0.0004041,15.80926486,325.10950596536895,330.5292599140603,1 46119U 20057C   26085.91668981  .00197586  00000+0  97901-3 0  9998,2 46119  53.0405 184.2252 0004041 349.7368  90.3795 15.80926486  5976
